AAUSAT 4                
1 41460U 16025E   23052.52196856  .00062077  00000+0  15604-2 0  9992
2 41460  98.1742 252.0283 0090613 104.1798 310.2564 15.35549457375902
AIST-2D (RS-48)         
1 41465U 16026B   23052.76849825  .00021567  00000+0  36728-3 0  9995
2 41465  97.0176 286.4723 0006612 312.5834 112.2223 15.51380362382038
NUSAT-1 (FRESCO)        
1 41557U 16033B   23052.86751438  .00042313  00000+0  88089-3 0  9997
2 41557  97.3843 157.4595 0009225 202.4659 274.6957 15.45448520375733
NUSAT-2 (BATATA)        
1 41558U 16033C   23052.86400216  .00046847  00000+0  91508-3 0  9999
2 41558  97.4121 164.6429 0008659 192.3590 320.6778 15.47291632376041
CARTOSAT-2C             
1 41599U 16040A   23052.78294161  .00007504  00000+0  35826-3 0  9991
2 41599  97.4547 114.7083 0013749  31.6025 106.9437 15.19258028369785
SATHYABAMASAT           
1 41600U 16040B   23052.89244937  .00070016  00000+0  13142-2 0  9996
2 41600  97.1810 105.7848 0006475 296.9657  63.0932 15.48358656371249
LAPAN-A3                
1 41603U 16040E   23052.90284785  .00003512  00000+0  15803-3 0  9990
2 41603  97.1806  83.7663 0013342  10.5071 112.3044 15.21645878369951
BIROS                   
1 41604U 16040F   23052.86601822  .00009674  00000+0  36568-3 0  9997
2 41604  97.1790  92.7881 0010057 338.9483  21.1342 15.27128004370481
SWAYAM                  
1 41607U 16040J   23052.69560815  .00058916  00000+0  12286-2 0  9990
2 41607  97.1771 103.1797 0006856 303.1529  56.9062 15.45340211371058
BEESAT-4                
1 41619U 16040W   23052.85130649  .00051484  00000+0  11631-2 0  9995
2 41619  97.1795 102.8261 0005623 299.9244  60.1445 15.43007795358991
3CAT-2                  
1 41732U 16051B   23052.78679001  .00035268  00000+0  80664-3 0  9990
2 41732  97.3928 342.0099 0012042 110.0614 309.2173 15.42664394363625
PRATHAM                 
1 41783U 16059A   23052.91398237  .00001045  00000+0  20786-3 0  9993
2 41783  97.8844  89.0890 0034560 104.9751 255.5282 14.63683405342114
ALSAT 1N                
1 41789U 16059G   23052.81042949  .00001803  00000+0  34236-3 0  9991
2 41789  97.8856  94.1343 0029331  87.2639 273.1884 14.65091806342373
LISHUI 1-01             
1 41845U 16066E   23052.77120286  .00151057  00000+0  52496-2 0  9992
2 41845  98.7200 214.6991 0099873 337.0150 146.1300 15.24463593333946
CARTOSAT-2D             
1 41948U 17008A   23052.72318348  .00006139  00000+0  29454-3 0  9995
2 41948  97.4312 113.9856 0005492 180.3714 179.7504 15.19230855333642
NAYIF-1 (EO-88)         
1 42017U 17008BX  23052.70519353  .00071186  00000+0  12777-2 0  9993
2 42017  97.2327 121.6224 0003097  76.1017 284.0579 15.49652385335436
ZHUHAI-1 02 (CAS-4B)    
1 42759U 17034B   23052.67601826  .00012408  00000+0  66670-3 0  9992
2 42759  43.0172  36.6827 0009127  68.7118 100.3464 15.14811263314107
ZHUHAI-1 01 (CAS-4A)    
1 42761U 17034D   23052.80957786  .00011855  00000+0  63542-3 0  9999
2 42761  43.0171  34.5272 0009975  70.9937 357.4206 15.14925946314131
UCLSAT                  
1 42765U 17036A   23052.62339075  .00038741  00000+0  98845-3 0  9997
2 42765  97.1628  93.2354 0008932 141.4292 218.7594 15.39365407316032
NIUSAT                  
1 42766U 17036B   23052.90366567  .00025718  00000+0  81222-3 0  9996
2 42766  97.1735  87.2395 0012779 150.6324 209.5639 15.32730727314919
CARTOSAT-2E             
1 42767U 17036C   23053.08095559 -.00030548  00000+0 -14537-2 0  9990
2 42767  97.4186 114.8415 0007279 230.9031 189.0072 15.19218673314266
LITUANICASAT-2          
1 42768U 17036D   23052.64928465  .00167883  00000+0  16453-2 0  9993
2 42768  97.1643 100.4608 0006276 123.6903 236.4956 15.65538681315724
AALTO-1                 
1 42775U 17036L   23052.81721889  .00018660  00000+0  63019-3 0  9990
2 42775  97.1686  86.4685 0012092 151.6690 208.5212 15.30645012314840
URSA MAIOR              
1 42776U 17036M   23052.67035273  .00020229  00000+0  65839-3 0  9996
2 42776  97.1695  87.3845 0011698 149.9677 210.2239 15.31824997314879
COMPASS 2               
1 42777U 17036N   23052.83789337  .00079487  00000+0  14592-2 0  9991
2 42777  97.1674  97.5514 0008208 127.7990 232.4006 15.48944244315480
MAX VALIER SAT          
1 42778U 17036P   23052.66868119  .00018939  00000+0  59193-3 0  9991
2 42778  97.1742  90.5784 0010411 149.6815 210.5032 15.33151683314999
PEGASUS                 
1 42784U 17036V   23052.87463249  .00034356  00000+0  93310-3 0  9996
2 42784  97.1666  92.3783 0009538 144.5873 215.6007 15.37458877315208
NUDTSAT                 
1 42787U 17036Y   23052.95360605  .00087852  00000+0  14424-2 0  9997
2 42787  97.1663  99.4949 0006811 131.4999 228.6840 15.52086966315498
SUCHAI                  
1 42788U 17036Z   23052.63532854  .00046350  00000+0  10888-2 0  9998
2 42788  97.1656  94.7547 0008579 139.0198 221.1696 15.41839340315409
SKCUBE                  
1 42789U 17036AA  23052.63349064  .00039895  00000+0  10072-2 0  9999
2 42789  97.1660  93.7728 0008866 140.8050 219.3840 15.39683195315267
VZLUSAT-1               
1 42790U 17036AB  23052.88090053  .00088088  00000+0  14808-2 0  9998
2 42790  97.1642  99.2845 0006585 129.5369 230.6466 15.51425129315628
ROBUSTA 1B              
1 42792U 17036AD  23052.90872846  .00047269  00000+0  11334-2 0  9998
2 42792  97.1647  94.9027 0008308 138.5474 221.6405 15.41217864315370
D-SAT                   
1 42794U 17036AF  23052.88682436  .00007856  00000+0  64051-3 0  9994
2 42794  97.4609  50.4446 0118317 330.2111  29.2408 14.94340813308708
NORSAT 2                
1 42828U 17042D   23052.81026899  .00004896  00000+0  45883-3 0  9990
2 42828  97.4041 260.0645 0012152 247.1763 112.8175 14.94401670305385
TECHNOSAT               
1 42829U 17042E   23052.80074761  .00002895  00000+0  28448-3 0  9996
2 42829  97.3968 257.1317 0012277 251.8127 108.1757 14.92817948305279
2017-042F               
1 42830U 17042F   23052.89541607  .00014713  00000+0  12242-2 0  9991
2 42830  97.4071 263.5332 0011511 238.8019 121.2076 14.98724841305589
FLYING LAPTOP           
1 42831U 17042G   23052.86939759  .00002707  00000+0  26813-3 0  9998
2 42831  97.3985 257.5369 0012272 250.8061 109.1816 14.92553559305286
CORVUS BC2              
1 42846U 17042X   23052.82289866  .00002788  00000+0  26707-3 0  9998
2 42846  97.3961 260.7336 0007911 237.4253 122.6204 14.93889909305490
CORVUS BC1              
1 42847U 17042Y   23052.55340634  .00002724  00000+0  26045-3 0  9995
2 42847  97.3958 260.8220 0007616 236.9459 123.1031 14.93983033305468
CZ-4C R/B               
1 43012U 17072C   23052.86236873  .00000631  00000+0  13919-3 0  9997
2 43012  98.6648 104.2889 0125711 274.4259  84.2585 14.56561285280167
RADFXSAT (FOX-1B)       
1 43017U 17073E   23052.64238974  .00007907  00000+0  56674-3 0  9991
2 43017  97.6480 301.5843 0241745  90.2161 272.6755 14.83988877284031
EAGLESAT 1              
1 43018U 17073F   23052.63127129  .00013873  00000+0  92938-3 0  9992
2 43018  97.6527 304.5462 0228812  80.6785 282.0226 14.88011091284082
INS-1C                  
1 43116U 18004F   23052.77238273  .00041798  00000+0  10532-2 0  9990
2 43116  97.3487 132.9622 0006797 179.2632 180.8625 15.39749643284543
FLOCK 3P'-3             
1 43119U 18004J   23052.67613531  .00078373  00000+0  19710-2 0  9992
2 43119  97.3408 129.6593 0007005 206.3382 153.7509 15.39634778284335
FLOCK 3P'-2             
1 43120U 18004K   23052.76838900  .00056610  00000+0  15824-2 0  9995
2 43120  97.3469 129.0537 0007645 204.7846 155.3032 15.36462916284297
FLOCK 3P'-1             
1 43121U 18004L   23052.81073911  .00236324  00000+0  22146-2 0  9992
2 43121  97.3545 140.2184 0004658 201.3197 158.7870 15.66459713284953
FLOCK 3P'-4             
1 43122U 18004M   23052.73962835  .00050092  00000+0  14045-2 0  9991
2 43122  97.3488 129.2556 0007120 203.3136 156.7786 15.36402972284295
MICROMAS-2A             
1 43131U 18004W   23052.75862555  .00209848  00000+0  21801-2 0  9994
2 43131  97.3439 140.4133 0004249 211.7091 148.3913 15.63935640285067
PICSAT                  
1 43132U 18004X   23052.76289999  .00049637  00000+0  11382-2 0  9992
2 43132  97.3450 133.9119 0006570 183.1307 176.9900 15.42565619284663
CNUSAIL-1               
1 43133U 18004Y   23052.73395224  .00026560  00000+0  76578-3 0  9998
2 43133  97.3402 130.1172 0007286 190.3743 169.7352 15.35667229284447
2018-004Z               
1 43134U 18004Z   23052.79013029  .00039675  00000+0  99786-3 0  9992
2 43134  97.3430 132.4911 0006630 188.4185 171.6951 15.39819056284588
FOX-1D (AO-92)          
1 43137U 18004AC  23052.74721550  .00031157  00000+0  85104-3 0  9991
2 43137  97.3409 131.3572 0006755 190.3524 169.7583 15.37326822284520
STEP CUBE LAB           
1 43138U 18004AD  23052.90020196  .00103975  00000+0  15845-2 0  9990
2 43138  97.3474 138.5304 0004894 192.1741 167.9395 15.54111284284959
XIAOXIANG-2             
1 43155U 18008A   23052.79249678  .00020713  00000+0  94509-3 0  9991
2 43155  97.3179 108.3669 0013765 359.1723 136.4938 15.20557509281083
ZHOU ENLAI              
1 43156U 18008B   23052.82347409  .00022639  00000+0  10311-2 0  9994
2 43156  97.3247 108.3837 0012158   4.2160 107.8019 15.20621330281014
QUANTUTONG 1            
1 43158U 18008D   23052.69872619  .00018454  00000+0  88919-3 0  9997
2 43158  97.3204 105.6408 0012566   6.3397 110.4744 15.18710164280869
S-NET D                 
1 43186U 18014G   23052.70983739  .00003906  00000+0  32416-3 0  9990
2 43186  97.6458 318.6318 0009434 173.1983 186.9369 14.99322883276247
S-NET B                 
1 43187U 18014H   23052.77714785  .00003888  00000+0  32278-3 0  9996
2 43187  97.6453 318.6366 0009461 173.5885 186.5461 14.99317946276255
S-NET A                 
1 43188U 18014J   23052.71068544  .00003870  00000+0  32125-3 0  9998
2 43188  97.6457 318.6502 0009456 173.8455 186.2886 14.99318086276245
